IRIDIUM 26              
1 24903U 97043A   25206.41073710  .00000365  00000+0  11600-3 0  9993
2 24903  86.3939  94.5650 0002038  81.0688 279.0741 14.37168494462235
IRIDIUM 22              
1 24907U 97043E   25206.44186676  .00000314  00000+0  10156-3 0  9995
2 24907  86.3946  98.1258 0002074  86.3855 273.7579 14.35977916462263
DUMMY MASS 1            
1 24925U 97048A   25206.23651496  .00000401  00000+0  41597-4 0  9995
2 24925  86.3359 117.7424 0007551  30.0377 330.1279 14.87011211510784
DUMMY MASS 2            
1 24926U 97048B   25206.27231006  .00000403  00000+0  42120-4 0  9996
2 24926  86.3361 119.3401 0008709  38.2401 321.9439 14.86763114510562
IRIDIUM 29              
1 24944U 97051A   25206.31185868  .00000382  00000+0  12369-3 0  9996
2 24944  86.3983 127.9141 0002310  89.9997 270.1465 14.36492420458742
IRIDIUM 33              
1 24946U 97051C   25206.47501015  .00000296  00000+0  97418-4 0  9994
2 24946  86.3898 127.1093 0006592 328.1724  31.9073 14.34911880458235
IRIDIUM 28              
1 24948U 97051E   25206.26134628  .00000322  00000+0  10104-3 0  9991
2 24948  86.3985 125.4296 0001963  72.7297 287.4115 14.37407201459319
IRIDIUM 36              
1 24967U 97056C   25206.35794918  .00000364  00000+0  11484-3 0  9999
2 24967  86.4014 156.9757 0001998  87.3694 272.7732 14.37633421457704
